[Satellite]
VERSION=1.1
NAME=ORBCOMM FM23 [+]
NICKNAME=ORBCOMM FM23 [+]
TLE1=1 25477U 98053C   15054.35134272  .00001071  00000-0  44959-3 0  9995
TLE2=2 25477  45.0104 352.4673 0001995 291.1381 223.0196 14.31733584857293
